[{"CCSDS_OMM_VERS":"2.0","COMMENT":"GENERATED VIA SPACE-TRACK.ORG API","CREATION_DATE":"2004-08-15T23:35:38","ORIGINATOR":"18 SPCS","OBJECT_NAME":"COSMOS 57 DEB","OBJECT_ID":"1965-012CX","CENTER_NAME":"EARTH","REF_FRAME":"TEME","TIME_SYSTEM":"UTC","MEAN_ELEMENT_THEORY":"SGP4","EPOCH":"1965-03-06T23:41:38.014656","MEAN_MOTION":"15.92458533","ECCENTRICITY":"0.01636730","INCLINATION":"64.6976","RA_OF_ASC_NODE":"254.7020","ARG_OF_PERICENTER":"84.4555","MEAN_ANOMALY":"277.4089","EPHEMERIS_TYPE":"0","CLASSIFICATION_TYPE":"U","NORAD_CAT_ID":"1194","ELEMENT_SET_NO":"999","REV_AT_EPOCH":"201","BSTAR":"0.00000000000000","MEAN_MOTION_DOT":"0.00438405","MEAN_MOTION_DDOT":"0.0004097000000","SEMIMAJOR_AXIS":"6673.546","PERIOD":"90.426","APOAPSIS":"404.639","PERIAPSIS":"186.183","OBJECT_TYPE":"DEBRIS","RCS_SIZE":null,"COUNTRY_CODE":null,"LAUNCH_DATE":null,"SITE":null,"DECAY_DATE":"1965-03-16","FILE":"33911","GP_ID":"8699953","TLE_LINE0":"0 COSMOS 57 DEB","TLE_LINE1":"1 01194U 65012 CX 65065.98724554  .00438405 +40970-3 +00000-0 0  9992","TLE_LINE2":"2 01194 064.6976 254.7020 0163673 084.4555 277.4089 15.92458533002017"},{"CCSDS_OMM_VERS":"2.0","COMMENT":"GENERATED VIA SPACE-TRACK.ORG API","CREATION_DATE":"2004-08-15T23:35:38","ORIGINATOR":"18 SPCS","OBJECT_NAME":"COSMOS 57 DEB","OBJECT_ID":"1965-012DC","CENTER_NAME":"EARTH","REF_FRAME":"TEME","TIME_SYSTEM":"UTC","MEAN_ELEMENT_THEORY":"SGP4","EPOCH":"1965-03-07T01:28:05.545920","MEAN_MOTION":"15.76263339","ECCENTRICITY":"0.02490130","INCLINATION":"64.7050","RA_OF_ASC_NODE":"256.0552","ARG_OF_PERICENTER":"71.4205","MEAN_ANOMALY":"291.2679","EPHEMERIS_TYPE":"0","CLASSIFICATION_TYPE":"U","NORAD_CAT_ID":"1199","ELEMENT_SET_NO":"999","REV_AT_EPOCH":"200","BSTAR":"0.00000000000000","MEAN_MOTION_DOT":"0.00628344","MEAN_MOTION_DDOT":"0.0007159000000","SEMIMAJOR_AXIS":"6719.179","PERIOD":"91.355","APOAPSIS":"508.361","PERIAPSIS":"173.728","OBJECT_TYPE":"DEBRIS","RCS_SIZE":null,"COUNTRY_CODE":"CIS","LAUNCH_DATE":"1965-02-22","SITE":"TTMTR","DECAY_DATE":"1965-03-17","FILE":"33911","GP_ID":"8699959","TLE_LINE0":"0 COSMOS 57 DEB","TLE_LINE1":"1 01199U 65012 DC 65066.06117530  .00628344 +71590-3 +00000-0 0  9992","TLE_LINE2":"2 01199 064.7050 256.0552 0249013 071.4205 291.2679 15.76263339002000"},{"CCSDS_OMM_VERS":"2.0","COMMENT":"GENERATED VIA SPACE-TRACK.ORG API","CREATION_DATE":"2004-08-15T23:35:38","ORIGINATOR":"18 SPCS","OBJECT_NAME":"COSMOS 57 DEB","OBJECT_ID":"1965-012DQ","CENTER_NAME":"EARTH","REF_FRAME":"TEME","TIME_SYSTEM":"UTC","MEAN_ELEMENT_THEORY":"SGP4","EPOCH":"1965-03-07T03:21:35.637119","MEAN_MOTION":"15.98267436","ECCENTRICITY":"0.01990410","INCLINATION":"65.0433","RA_OF_ASC_NODE":"253.5363","ARG_OF_PERICENTER":"60.3102","MEAN_ANOMALY":"301.6818","EPHEMERIS_TYPE":"0","CLASSIFICATION_TYPE":"U","NORAD_CAT_ID":"1213","ELEMENT_SET_NO":"999","REV_AT_EPOCH":"205","BSTAR":"0.00000000000000","MEAN_MOTION_DOT":"0.00098473","MEAN_MOTION_DDOT":"0.0000221380000","SEMIMAJOR_AXIS":"6657.366","PERIOD":"90.097","APOAPSIS":"411.740","PERIAPSIS":"146.722","OBJECT_TYPE":"DEBRIS","RCS_SIZE":null,"COUNTRY_CODE":null,"LAUNCH_DATE":null,"SITE":null,"DECAY_DATE":"1965-03-14","FILE":"33911","GP_ID":"8699980","TLE_LINE0":"0 COSMOS 57 DEB","TLE_LINE1":"1 01213U 65012 DQ 65066.13999580  .00098473 +22138-4 +00000-0 0  9999","TLE_LINE2":"2 01213 065.0433 253.5363 0199041 060.3102 301.6818 15.98267436002058"},{"CCSDS_OMM_VERS":"2.0","COMMENT":"GENERATED VIA SPACE-TRACK.ORG API","CREATION_DATE":"2004-08-15T23:35:38","ORIGINATOR":"18 SPCS","OBJECT_NAME":"COSMOS 57 DEB","OBJECT_ID":"1965-012BV","CENTER_NAME":"EARTH","REF_FRAME":"TEME","TIME_SYSTEM":"UTC","MEAN_ELEMENT_THEORY":"SGP4","EPOCH":"1965-03-07T14:39:29.783231","MEAN_MOTION":"16.11535020","ECCENTRICITY":"0.00892180","INCLINATION":"64.9414","RA_OF_ASC_NODE":"251.8182","ARG_OF_PERICENTER":"48.7115","MEAN_ANOMALY":"312.0542","EPHEMERIS_TYPE":"0","CLASSIFICATION_TYPE":"U","NORAD_CAT_ID":"1165","ELEMENT_SET_NO":"999","REV_AT_EPOCH":"213","BSTAR":"0.00000000000000","MEAN_MOTION_DOT":"0.00880353","MEAN_MOTION_DDOT":"0.0021308000000","SEMIMAJOR_AXIS":"6620.776","PERIOD":"89.355","APOAPSIS":"301.711","PERIAPSIS":"183.572","OBJECT_TYPE":"DEBRIS","RCS_SIZE":null,"COUNTRY_CODE":null,"LAUNCH_DATE":null,"SITE":null,"DECAY_DATE":"1965-03-09","FILE":"33911","GP_ID":"8699918","TLE_LINE0":"0 COSMOS 57 DEB","TLE_LINE1":"1 01165U 65012 BV 65066.61076138  .00880353 +21308-2 +00000-0 0  9995","TLE_LINE2":"2 01165 064.9414 251.8182 0089218 048.7115 312.0542 16.11535020002131"},{"CCSDS_OMM_VERS":"2.0","COMMENT":"GENERATED VIA SPACE-TRACK.ORG API","CREATION_DATE":"2004-08-15T23:35:38","ORIGINATOR":"18 SPCS","OBJECT_NAME":"COSMOS 57 DEB","OBJECT_ID":"1965-012AQ","CENTER_NAME":"EARTH","REF_FRAME":"TEME","TIME_SYSTEM":"UTC","MEAN_ELEMENT_THEORY":"SGP4","EPOCH":"1965-03-07T20:48:29.691648","MEAN_MOTION":"15.93671403","ECCENTRICITY":"0.02051540","INCLINATION":"64.7488","RA_OF_ASC_NODE":"251.2165","ARG_OF_PERICENTER":"56.0746","MEAN_ANOMALY":"305.8595","EPHEMERIS_TYPE":"0","CLASSIFICATION_TYPE":"U","NORAD_CAT_ID":"1136","ELEMENT_SET_NO":"999","REV_AT_EPOCH":"214","BSTAR":"0.00000000000000","MEAN_MOTION_DOT":"0.00751084","MEAN_MOTION_DDOT":"0.0012193000000","SEMIMAJOR_AXIS":"6670.160","PERIOD":"90.357","APOAPSIS":"428.866","PERIAPSIS":"155.184","OBJECT_TYPE":"DEBRIS","RCS_SIZE":null,"COUNTRY_CODE":null,"LAUNCH_DATE":null,"SITE":null,"DECAY_DATE":"1965-03-17","FILE":"33911","GP_ID":"8699873","TLE_LINE0":"0 COSMOS 57 DEB","TLE_LINE1":"1 01136U 65012 AQ 65066.86701032  .00751084 +12193-2 +00000-0 0  9998","TLE_LINE2":"2 01136 064.7488 251.2165 0205154 056.0746 305.8595 15.93671403002148"},{"CCSDS_OMM_VERS":"2.0","COMMENT":"GENERATED VIA SPACE-TRACK.ORG API","CREATION_DATE":"2004-08-15T23:35:38","ORIGINATOR":"18 SPCS","OBJECT_NAME":"OPS 4782 DEB","OBJECT_ID":"1965-013B","CENTER_NAME":"EARTH","REF_FRAME":"TEME","TIME_SYSTEM":"UTC","MEAN_ELEMENT_THEORY":"SGP4","EPOCH":"1965-03-07T20:53:55.915584","MEAN_MOTION":"16.19493557","ECCENTRICITY":"0.00815910","INCLINATION":"75.0569","RA_OF_ASC_NODE":"170.3129","ARG_OF_PERICENTER":"138.1989","MEAN_ANOMALY":"222.4272","EPHEMERIS_TYPE":"0","CLASSIFICATION_TYPE":"U","NORAD_CAT_ID":"1193","ELEMENT_SET_NO":"999","REV_AT_EPOCH":"160","BSTAR":"0.00000000000000","MEAN_MOTION_DOT":"0.13347557","MEAN_MOTION_DDOT":"0.5623800000000","SEMIMAJOR_AXIS":"6599.068","PERIOD":"88.916","APOAPSIS":"274.775","PERIAPSIS":"167.091","OBJECT_TYPE":"DEBRIS","RCS_SIZE":null,"COUNTRY_CODE":null,"LAUNCH_DATE":null,"SITE":null,"DECAY_DATE":"1965-03-10","FILE":"33911","GP_ID":"8699952","TLE_LINE0":"0 OPS 4782 DEB","TLE_LINE1":"1 01193U 65013  B 65066.87078606  .13347557 +56238-0 +00000-0 0  9993","TLE_LINE2":"2 01193 075.0569 170.3129 0081591 138.1989 222.4272 16.19493557001602"},{"CCSDS_OMM_VERS":"2.0","COMMENT":"GENERATED VIA SPACE-TRACK.ORG API","CREATION_DATE":"2004-08-15T23:35:38","ORIGINATOR":"18 SPCS","OBJECT_NAME":"COSMOS 57 DEB","OBJECT_ID":"1965-012DS","CENTER_NAME":"EARTH","REF_FRAME":"TEME","TIME_SYSTEM":"UTC","MEAN_ELEMENT_THEORY":"SGP4","EPOCH":"1965-03-08T00:48:11.470176","MEAN_MOTION":"15.95602832","ECCENTRICITY":"0.01833890","INCLINATION":"64.7946","RA_OF_ASC_NODE":"251.1368","ARG_OF_PERICENTER":"67.9722","MEAN_ANOMALY":"293.9813","EPHEMERIS_TYPE":"0","CLASSIFICATION_TYPE":"U","NORAD_CAT_ID":"1215","ELEMENT_SET_NO":"999","REV_AT_EPOCH":"219","BSTAR":"0.00000000000000","MEAN_MOTION_DOT":"0.00584126","MEAN_MOTION_DDOT":"0.0007542300000","SEMIMAJOR_AXIS":"6664.776","PERIOD":"90.248","APOAPSIS":"408.866","PERIAPSIS":"164.416","OBJECT_TYPE":"DEBRIS","RCS_SIZE":null,"COUNTRY_CODE":null,"LAUNCH_DATE":null,"SITE":null,"DECAY_DATE":"1965-03-16","FILE":"33911","GP_ID":"8699982","TLE_LINE0":"0 COSMOS 57 DEB","TLE_LINE1":"1 01215U 65012 DS 65067.03346609  .00584126 +75423-3 +00000-0 0  9998","TLE_LINE2":"2 01215 064.7946 251.1368 0183389 067.9722 293.9813 15.95602832002196"},{"CCSDS_OMM_VERS":"2.0","COMMENT":"GENERATED VIA SPACE-TRACK.ORG API","CREATION_DATE":"2004-08-15T23:35:38","ORIGINATOR":"18 SPCS","OBJECT_NAME":"COSMOS 57 DEB","OBJECT_ID":"1965-012BL","CENTER_NAME":"EARTH","REF_FRAME":"TEME","TIME_SYSTEM":"UTC","MEAN_ELEMENT_THEORY":"SGP4","EPOCH":"1965-03-08T01:44:51.786239","MEAN_MOTION":"15.80529696","ECCENTRICITY":"0.02356410","INCLINATION":"64.6619","RA_OF_ASC_NODE":"250.8475","ARG_OF_PERICENTER":"72.3104","MEAN_ANOMALY":"290.2482","EPHEMERIS_TYPE":"0","CLASSIFICATION_TYPE":"U","NORAD_CAT_ID":"1156","ELEMENT_SET_NO":"999","REV_AT_EPOCH":"217","BSTAR":"0.00000000000000","MEAN_MOTION_DOT":"0.00291854","MEAN_MOTION_DDOT":"0.0001605900000","SEMIMAJOR_AXIS":"6707.082","PERIOD":"91.108","APOAPSIS":"486.994","PERIAPSIS":"170.901","OBJECT_TYPE":"DEBRIS","RCS_SIZE":null,"COUNTRY_CODE":null,"LAUNCH_DATE":null,"SITE":null,"DECAY_DATE":"1965-03-18","FILE":"33911","GP_ID":"8699907","TLE_LINE0":"0 COSMOS 57 DEB","TLE_LINE1":"1 01156U 65012 BL 65067.07282160  .00291854 +16059-3 +00000-0 0  9990","TLE_LINE2":"2 01156 064.6619 250.8475 0235641 072.3104 290.2482 15.80529696002174"}]